[{"OBJECT_NAME":"FENGYUN 1C DEB","OBJECT_ID":"1999-025ADA","EPOCH":"2026-03-04T12:53:14.758368","MEAN_MOTION":14.15162239,"ECCENTRICITY":0.00011066,"INCLINATION":98.654,"RA_OF_ASC_NODE":81.169,"ARG_OF_PERICENTER":100.2875,"MEAN_ANOMALY":51.2449,"EPHEMERIS_TYPE":0,"CLASSIFICATION_TYPE":"U","NORAD_CAT_ID":30387,"ELEMENT_SET_NO":999,"REV_AT_EPOCH":98481,"BSTAR":0.0004039397,"MEAN_MOTION_DOT":7.42e-6,"MEAN_MOTION_DDOT":0},{"OBJECT_NAME":"FENGYUN 1C DEB","OBJECT_ID":"1999-025ADB","EPOCH":"2026-03-05T07:24:40.447872","MEAN_MOTION":14.20029565,"ECCENTRICITY":0.02208078,"INCLINATION":98.594,"RA_OF_ASC_NODE":87.6898,"ARG_OF_PERICENTER":183.5032,"MEAN_ANOMALY":195.8423,"EPHEMERIS_TYPE":0,"CLASSIFICATION_TYPE":"U","NORAD_CAT_ID":30388,"ELEMENT_SET_NO":999,"REV_AT_EPOCH":98604,"BSTAR":0.00051029742,"MEAN_MOTION_DOT":1.341e-5,"MEAN_MOTION_DDOT":0},{"OBJECT_NAME":"FENGYUN 1C DEB","OBJECT_ID":"1999-025ADC","EPOCH":"2026-03-05T04:47:58.302240","MEAN_MOTION":14.45584888,"ECCENTRICITY":0.00100201,"INCLINATION":98.8301,"RA_OF_ASC_NODE":153.6953,"ARG_OF_PERICENTER":336.9184,"MEAN_ANOMALY":85.8608,"EPHEMERIS_TYPE":0,"CLASSIFICATION_TYPE":"U","NORAD_CAT_ID":30389,"ELEMENT_SET_NO":999,"REV_AT_EPOCH":98977,"BSTAR":0.002655033,"MEAN_MOTION_DOT":9.347e-5,"MEAN_MOTION_DDOT":0},{"OBJECT_NAME":"FENGYUN 1C DEB","OBJECT_ID":"1999-025ADD","EPOCH":"2026-03-05T05:43:16.591008","MEAN_MOTION":14.30493411,"ECCENTRICITY":0.00651632,"INCLINATION":98.8145,"RA_OF_ASC_NODE":153.5416,"ARG_OF_PERICENTER":281.6933,"MEAN_ANOMALY":139.5027,"EPHEMERIS_TYPE":0,"CLASSIFICATION_TYPE":"U","NORAD_CAT_ID":30390,"ELEMENT_SET_NO":999,"REV_AT_EPOCH":98563,"BSTAR":0.0019045931,"MEAN_MOTION_DOT":5.034e-5,"MEAN_MOTION_DDOT":0},{"OBJECT_NAME":"FENGYUN 1C DEB","OBJECT_ID":"1999-025ADE","EPOCH":"2026-03-05T02:59:52.438272","MEAN_MOTION":14.16643219,"ECCENTRICITY":0.00706605,"INCLINATION":98.7707,"RA_OF_ASC_NODE":113.9818,"ARG_OF_PERICENTER":28.458,"MEAN_ANOMALY":350.7122,"EPHEMERIS_TYPE":0,"CLASSIFICATION_TYPE":"U","NORAD_CAT_ID":30391,"ELEMENT_SET_NO":999,"REV_AT_EPOCH":98045,"BSTAR":0.0011591803,"MEAN_MOTION_DOT":2.328e-5,"MEAN_MOTION_DDOT":0},{"OBJECT_NAME":"FENGYUN 1C DEB","OBJECT_ID":"1999-025ADF","EPOCH":"2026-03-05T00:13:01.724736","MEAN_MOTION":14.07667544,"ECCENTRICITY":0.0181706,"INCLINATION":98.781,"RA_OF_ASC_NODE":85.3708,"ARG_OF_PERICENTER":124.648,"MEAN_ANOMALY":268.3643,"EPHEMERIS_TYPE":0,"CLASSIFICATION_TYPE":"U","NORAD_CAT_ID":30392,"ELEMENT_SET_NO":999,"REV_AT_EPOCH":97828,"BSTAR":0.0005323345,"MEAN_MOTION_DOT":1.005e-5,"MEAN_MOTION_DDOT":0},{"OBJECT_NAME":"FENGYUN 1C DEB","OBJECT_ID":"1999-025ADG","EPOCH":"2026-03-05T03:14:44.208096","MEAN_MOTION":13.99021225,"ECCENTRICITY":0.00708741,"INCLINATION":99.1489,"RA_OF_ASC_NODE":126.8583,"ARG_OF_PERICENTER":34.3171,"MEAN_ANOMALY":354.5418,"EPHEMERIS_TYPE":0,"CLASSIFICATION_TYPE":"U","NORAD_CAT_ID":30393,"ELEMENT_SET_NO":999,"REV_AT_EPOCH":97482,"BSTAR":-1.2581361e-5,"MEAN_MOTION_DOT":-6.3e-7,"MEAN_MOTION_DDOT":0},{"OBJECT_NAME":"FENGYUN 1C DEB","OBJECT_ID":"1999-025ADH","EPOCH":"2026-03-05T08:03:04.172544","MEAN_MOTION":13.95858396,"ECCENTRICITY":0.00884859,"INCLINATION":99.4252,"RA_OF_ASC_NODE":99.5279,"ARG_OF_PERICENTER":237.2903,"MEAN_ANOMALY":186.9218,"EPHEMERIS_TYPE":0,"CLASSIFICATION_TYPE":"U","NORAD_CAT_ID":30394,"ELEMENT_SET_NO":999,"REV_AT_EPOCH":97256,"BSTAR":0.00030150269,"MEAN_MOTION_DOT":3.78e-6,"MEAN_MOTION_DDOT":0},{"OBJECT_NAME":"FENGYUN 1C DEB","OBJECT_ID":"1999-025ADJ","EPOCH":"2026-03-05T00:42:17.874720","MEAN_MOTION":13.96828264,"ECCENTRICITY":0.01605098,"INCLINATION":98.9267,"RA_OF_ASC_NODE":82.2236,"ARG_OF_PERICENTER":158.8329,"MEAN_ANOMALY":234.5652,"EPHEMERIS_TYPE":0,"CLASSIFICATION_TYPE":"U","NORAD_CAT_ID":30395,"ELEMENT_SET_NO":999,"REV_AT_EPOCH":97172,"BSTAR":0.00034242418,"MEAN_MOTION_DOT":4.89e-6,"MEAN_MOTION_DDOT":0},{"OBJECT_NAME":"FENGYUN 1C DEB","OBJECT_ID":"1999-025ADK","EPOCH":"2026-03-04T23:02:21.518592","MEAN_MOTION":13.87201256,"ECCENTRICITY":0.01329174,"INCLINATION":98.2282,"RA_OF_ASC_NODE":63.9644,"ARG_OF_PERICENTER":262.477,"MEAN_ANOMALY":124.9115,"EPHEMERIS_TYPE":0,"CLASSIFICATION_TYPE":"U","NORAD_CAT_ID":30396,"ELEMENT_SET_NO":999,"REV_AT_EPOCH":96719,"BSTAR":0.00013853749,"MEAN_MOTION_DOT":1.37e-6,"MEAN_MOTION_DDOT":0},{"OBJECT_NAME":"FENGYUN 1C DEB","OBJECT_ID":"1999-025ADL","EPOCH":"2026-03-04T08:59:42.637920","MEAN_MOTION":13.98926432,"ECCENTRICITY":0.01503438,"INCLINATION":98.4107,"RA_OF_ASC_NODE":209.8971,"ARG_OF_PERICENTER":222.5583,"MEAN_ANOMALY":164.6707,"EPHEMERIS_TYPE":0,"CLASSIFICATION_TYPE":"U","NORAD_CAT_ID":30397,"ELEMENT_SET_NO":999,"REV_AT_EPOCH":96906,"BSTAR":0.0021723696,"MEAN_MOTION_DOT":3.415e-5,"MEAN_MOTION_DDOT":0},{"OBJECT_NAME":"FENGYUN 1C DEB","OBJECT_ID":"1999-025ADM","EPOCH":"2026-03-04T16:12:29.661120","MEAN_MOTION":13.78784234,"ECCENTRICITY":0.01738536,"INCLINATION":99.7108,"RA_OF_ASC_NODE":327.2038,"ARG_OF_PERICENTER":82.107,"MEAN_ANOMALY":309.6186,"EPHEMERIS_TYPE":0,"CLASSIFICATION_TYPE":"U","NORAD_CAT_ID":30398,"ELEMENT_SET_NO":999,"REV_AT_EPOCH":95886,"BSTAR":0.00057734231,"MEAN_MOTION_DOT":6.12e-6,"MEAN_MOTION_DDOT":0},{"OBJECT_NAME":"FENGYUN 1C DEB","OBJECT_ID":"1999-025ADP","EPOCH":"2026-03-05T07:05:09.250944","MEAN_MOTION":14.11070089,"ECCENTRICITY":0.02226231,"INCLINATION":99.1594,"RA_OF_ASC_NODE":358.4395,"ARG_OF_PERICENTER":103.7116,"MEAN_ANOMALY":48.1691,"EPHEMERIS_TYPE":0,"CLASSIFICATION_TYPE":"U","NORAD_CAT_ID":30400,"ELEMENT_SET_NO":999,"REV_AT_EPOCH":96678,"BSTAR":0.0026322201,"MEAN_MOTION_DOT":5.934e-5,"MEAN_MOTION_DDOT":0},{"OBJECT_NAME":"FENGYUN 1C DEB","OBJECT_ID":"1999-025ADQ","EPOCH":"2026-03-04T22:57:12.649824","MEAN_MOTION":14.28075836,"ECCENTRICITY":0.01060522,"INCLINATION":98.9394,"RA_OF_ASC_NODE":307.8382,"ARG_OF_PERICENTER":249.3757,"MEAN_ANOMALY":109.6024,"EPHEMERIS_TYPE":0,"CLASSIFICATION_TYPE":"U","NORAD_CAT_ID":30401,"ELEMENT_SET_NO":999,"REV_AT_EPOCH":99477,"BSTAR":0.0001843348,"MEAN_MOTION_DOT":4.39e-6,"MEAN_MOTION_DDOT":0},{"OBJECT_NAME":"FENGYUN 1C DEB","OBJECT_ID":"1999-025ADS","EPOCH":"2026-03-05T04:53:35.603520","MEAN_MOTION":14.22391655,"ECCENTRICITY":0.00785866,"INCLINATION":99.0519,"RA_OF_ASC_NODE":149.8246,"ARG_OF_PERICENTER":147.4155,"MEAN_ANOMALY":213.1907,"EPHEMERIS_TYPE":0,"CLASSIFICATION_TYPE":"U","NORAD_CAT_ID":30403,"ELEMENT_SET_NO":999,"REV_AT_EPOCH":97978,"BSTAR":0.0024073738,"MEAN_MOTION_DOT":5.488e-5,"MEAN_MOTION_DDOT":0},{"OBJECT_NAME":"FENGYUN 1C DEB","OBJECT_ID":"1999-025ADT","EPOCH":"2026-03-04T23:20:07.928736","MEAN_MOTION":13.34447046,"ECCENTRICITY":0.03744532,"INCLINATION":99.8245,"RA_OF_ASC_NODE":157.6738,"ARG_OF_PERICENTER":297.7514,"MEAN_ANOMALY":58.6109,"EPHEMERIS_TYPE":0,"CLASSIFICATION_TYPE":"U","NORAD_CAT_ID":30404,"ELEMENT_SET_NO":999,"REV_AT_EPOCH":59133,"BSTAR":0.0011119241,"MEAN_MOTION_DOT":7.81e-6,"MEAN_MOTION_DDOT":0}]
