FENGYUN 1C DEB          
1 30387U 99025ADA 26063.53697637  .00000742  00000+0  40394-3 0  9994
2 30387  98.6540  81.1690 0001106 100.2875  51.2449 14.15162239984810
FENGYUN 1C DEB          
1 30388U 99025ADB 26064.30880148  .00001341  00000+0  51030-3 0  9997
2 30388  98.5940  87.6898 0220807 183.5032 195.8423 14.20029565986049
FENGYUN 1C DEB          
1 30389U 99025ADC 26064.19998035  .00009347  00000+0  26550-2 0  9992
2 30389  98.8301 153.6953 0010020 336.9184  85.8608 14.45584888989773
FENGYUN 1C DEB          
1 30390U 99025ADD 26064.23838647  .00005034  00000+0  19046-2 0  9992
2 30390  98.8145 153.5416 0065163 281.6933 139.5027 14.30493411985638
FENGYUN 1C DEB          
1 30391U 99025ADE 26064.12491248  .00002328  00000+0  11592-2 0  9994
2 30391  98.7707 113.9818 0070660  28.4580 350.7122 14.16643219980456
FENGYUN 1C DEB          
1 30392U 99025ADF 26064.00904774  .00001005  00000+0  53233-3 0  9995
2 30392  98.7810  85.3708 0181706 124.6480 268.3643 14.07667544978281
FENGYUN 1C DEB          
1 30393U 99025ADG 26064.13523389 -.00000063  00000+0 -12581-4 0  9996
2 30393  99.1489 126.8583 0070874  34.3171 354.5418 13.99021225974822
FENGYUN 1C DEB          
1 30394U 99025ADH 26064.33546496  .00000378  00000+0  30150-3 0  9991
2 30394  99.4252  99.5279 0088485 237.2903 186.9218 13.95858396972563
FENGYUN 1C DEB          
1 30395U 99025ADJ 26064.02937355  .00000489  00000+0  34242-3 0  9995
2 30395  98.9267  82.2236 0160509 158.8329 234.5652 13.96828264971725
FENGYUN 1C DEB          
1 30396U 99025ADK 26063.95997128  .00000137  00000+0  13854-3 0  9997
2 30396  98.2282  63.9644 0132917 262.4770 124.9115 13.87201256967197
FENGYUN 1C DEB          
1 30397U 99025ADL 26063.37479905  .00003415  00000+0  21724-2 0  9998
2 30397  98.4107 209.8971 0150343 222.5583 164.6707 13.98926432969060
FENGYUN 1C DEB          
1 30398U 99025ADM 26063.67534330  .00000612  00000+0  57734-3 0  9993
2 30398  99.7108 327.2038 0173853  82.1070 309.6186 13.78784234958865
FENGYUN 1C DEB          
1 30400U 99025ADP 26064.29524596  .00005934  00000+0  26322-2 0  9999
2 30400  99.1594 358.4395 0222623 103.7116  48.1691 14.11070089966785
FENGYUN 1C DEB          
1 30401U 99025ADQ 26063.95639641  .00000439  00000+0  18433-3 0  9990
2 30401  98.9394 307.8382 0106052 249.3757 109.6024 14.28075836994776
FENGYUN 1C DEB          
1 30403U 99025ADS 26064.20388430  .00005488  00000+0  24074-2 0  9994
2 30403  99.0519 149.8246 0078586 147.4155 213.1907 14.22391655979781
FENGYUN 1C DEB          
1 30404U 99025ADT 26063.97231399  .00000781  00000+0  11119-2 0  9996
2 30404  99.8245 157.6738 0374453 297.7514  58.6109 13.34447046591334
